FENGYUN 1C DEB          
1 37044U 99025EEC 17345.13046615  .00000740  00000-0  41798-3 0  9992
2 37044  98.9321 316.6866 0596701 125.5784 240.2483 13.47766375443214
